NORAD_CAT_ID,OBJECT_NAME,OBJECT_TYPE,EPOCH,MEAN_MOTION,ECCENTRICITY,INCLINATION,RA_OF_ASC_NODE,ARG_OF_PERICENTER,MEAN_ANOMALY,BSTAR,MEAN_MOTION_DOT,MEAN_MOTION_DDOT,TLE_LINE0,TLE_LINE1,TLE_LINE2,SEMIMAJOR_AXIS,PERIOD,APOGEE,PERIGEE,DECAYED
52630.0,STARLINK-3989,PAYLOAD,2023-09-09 17:30:42,15.08840951,0.0001138,53.2186,43.0651,75.437,284.6749,0.00010632,1.405e-05,0.0,0 STARLINK-3989,1 52630U 22052AJ  23252.72966200  .00001405  00000-0  10632-3 0  9998,2 52630  53.2186  43.0651 0001138  75.4370 284.6749 15.08840951 73697,6917.877,95.437,540.53,538.955,0.0
52630.0,STARLINK-3989,PAYLOAD,2023-09-10 14:10:43,15.0884263,0.0001224,53.2181,39.1994,82.8135,277.2996,0.00015058,2.11e-05,0.0,0 STARLINK-3989,1 52630U 22052AJ  23253.59078111  .00002110  00000-0  15058-3 0  9990,2 52630  53.2181  39.1994 0001224  82.8135 277.2996 15.08842630 73446,6917.872,95.437,540.584,538.891,0.0
52630.0,STARLINK-3989,PAYLOAD,2023-09-11 02:53:48,15.08843873,0.0001166,53.2179,36.8208,85.0254,275.0871,0.00012066,1.633e-05,0.0,0 STARLINK-3989,1 52630U 22052AJ  23254.12069996  .00001633  00000-0  12066-3 0  9996,2 52630  53.2179  36.8208 0001166  85.0254 275.0871 15.08843873 73906,6917.869,95.437,540.54,538.927,0.0
52630.0,STARLINK-3989,PAYLOAD,2023-09-11 14:01:30,15.08841677,0.0001312,53.2185,34.7391,88.4104,271.7038,9.4324e-05,1.214e-05,0.0,0 STARLINK-3989,1 52630U 22052AJ  23254.58438259  .00001214  00000-0  94324-4 0  9991,2 52630  53.2185  34.7391 0001312  88.4104 271.7038 15.08841677 73590,6917.875,95.437,540.648,538.833,0.0
52630.0,STARLINK-3989,PAYLOAD,2023-09-12 09:06:08,15.08842995,0.0001185,53.2175,31.1707,89.8823,270.2305,0.00010387,1.366e-05,0.0,0 STARLINK-3989,1 52630U 22052AJ  23255.37926070  .00001366  00000-0  10387-3 0  9996,2 52630  53.2175  31.1707 0001185  89.8823 270.2305 15.08842995 74093,6917.871,95.437,540.556,538.916,0.0
52630.0,STARLINK-3989,PAYLOAD,2023-09-12 13:52:17,15.0884621,0.0001183,53.2184,30.2788,90.7728,269.34,0.00011737,1.581e-05,0.0,0 STARLINK-3989,1 52630U 22052AJ  23255.57797885  .00001581  00000-0  11737-3 0  9997,2 52630  53.2184  30.2788 0001183  90.7728 269.3400 15.08846210 73745,6917.861,95.437,540.545,538.908,0.0
52630.0,STARLINK-3989,PAYLOAD,2023-09-12 15:27:40,15.08847223,0.0001351,53.2181,29.9819,85.8997,274.2149,0.00010501,1.384e-05,0.0,0 STARLINK-3989,1 52630U 22052AJ  23255.64421866  .00001384  00000-0  10501-3 0  9997,2 52630  53.2181  29.9819 0001351  85.8997 274.2149 15.08847223 73753,6917.858,95.437,540.658,538.789,0.0
52630.0,STARLINK-3989,PAYLOAD,2023-09-13 02:35:21,15.08857163,0.0001108,53.2179,27.9011,87.8607,272.2512,6.5756e-05,7.59e-06,0.0,0 STARLINK-3989,1 52630U 22052AJ  23256.10788942  .00000759  00000-0  65756-4 0  9998,2 52630  53.2179  27.9011 0001108  87.8607 272.2512 15.08857163 74209,6917.828,95.436,540.459,538.926,0.0
52630.0,STARLINK-3989,PAYLOAD,2023-09-13 13:43:04,15.08847551,0.0001432,53.2182,25.8195,85.6892,274.4264,0.0001589,2.242e-05,0.0,0 STARLINK-3989,1 52630U 22052AJ  23256.57157602  .00002242  00000-0  15890-3 0  9994,2 52630  53.2182  25.8195 0001432  85.6892 274.4264 15.08847551 73897,6917.857,95.437,540.713,538.732,0.0
52630.0,STARLINK-3989,PAYLOAD,2023-09-13 15:18:27,15.0885083,0.0001441,53.2186,25.5222,83.8047,276.3109,0.00010424,1.372e-05,0.0,0 STARLINK-3989,1 52630U 22052AJ  23256.63781423  .00001372  00000-0  10424-3 0  9996,2 52630  53.2186  25.5222 0001441  83.8047 276.3109 15.08850830 74288,6917.847,95.437,540.709,538.715,0.0
52630.0,STARLINK-3989,PAYLOAD,2023-09-13 18:29:13,15.08852325,0.0001458,53.2189,24.9251,97.0536,263.0622,0.00023277,3.42e-05,0.0,0 STARLINK-3989,1 52630U 22052AJ  23256.77029191  .00003420  00000-0  23277-3 0  9994,2 52630  53.2189  24.9251 0001458  97.0536 263.0622 15.08852325 73928,6917.843,95.437,540.716,538.699,0.0
52630.0,STARLINK-3989,PAYLOAD,2023-09-14 08:47:42,15.08823214,0.0001255,53.2192,22.251,73.7509,286.3622,-0.00021058,-3.636e-05,0.0,0 STARLINK-3989,1 52630U 22052AJ  23257.36646990 -.00003636  00000-0 -21058-3 0  9998,2 52630  53.2192  22.2510 0001255  73.7509 286.3622 15.08823214 74392,6917.932,95.439,540.665,538.928,0.0
52630.0,STARLINK-3989,PAYLOAD,2023-09-14 13:33:52,15.08823058,0.0001449,53.2192,21.3586,87.3645,272.7513,-0.00019885,-3.45e-05,0.0,0 STARLINK-3989,1 52630U 22052AJ  23257.56519166 -.00003450  00000-0 -19885-3 0  9993,2 52630  53.2192  21.3586 0001449  87.3645 272.7513 15.08823058 74048,6917.932,95.439,540.8,538.795,0.0
52630.0,STARLINK-3989,PAYLOAD,2023-09-14 15:09:15,15.08822933,0.0001406,53.2191,21.0617,86.7218,273.3935,-0.00019408,-3.374e-05,0.0,0 STARLINK-3989,1 52630U 22052AJ  23257.63143234 -.00003374  00000-0 -19408-3 0  9996,2 52630  53.2191  21.0617 0001406  86.7218 273.3935 15.08822933 74058,6917.933,95.439,540.77,538.825,0.0
52630.0,STARLINK-3989,PAYLOAD,2023-09-15 08:38:30,15.0883535,0.0001217,53.218,17.7901,75.3176,284.7951,5.5409e-05,5.94e-06,0.0,0 STARLINK-3989,1 52630U 22052AJ  23258.36006969  .00000594  00000-0  55409-4 0  9991,2 52630  53.2180  17.7901 0001217  75.3176 284.7951 15.08835350 74546,6917.895,95.438,540.602,538.918,0.0
52630.0,STARLINK-3989,PAYLOAD,2023-09-15 13:24:38,15.08849771,0.0001526,53.2197,16.8958,100.7483,259.3681,0.00026059,3.863e-05,0.0,0 STARLINK-3989,1 52630U 22052AJ  23258.55878157  .00003863  00000-0  26059-3 0  9998,2 52630  53.2197  16.8958 0001526 100.7483 259.3681 15.08849771 74194,6917.851,95.437,540.771,538.66,0.0
52630.0,STARLINK-3989,PAYLOAD,2023-09-15 15:00:01,15.08850888,0.0001312,53.2189,16.5997,85.9564,274.1578,0.00020293,2.944e-05,0.0,0 STARLINK-3989,1 52630U 22052AJ  23258.62502112  .00002944  00000-0  20293-3 0  9994,2 52630  53.2189  16.5997 0001312  85.9564 274.1578 15.08850888 74586,6917.847,95.437,540.62,538.804,0.0
52630.0,STARLINK-3989,PAYLOAD,2023-09-16 00:32:20,15.08843114,0.0001496,53.2186,14.8156,76.0998,284.0161,0.00010382,1.365e-05,0.0,0 STARLINK-3989,1 52630U 22052AJ  23259.02246503  .00001365  00000-0  10382-3 0  9992,2 52630  53.2186  14.8156 0001496  76.0998 284.0161 15.08843114 74645,6917.871,95.437,540.771,538.701,0.0
52630.0,STARLINK-3989,PAYLOAD,2023-09-16 06:53:54,15.08837358,0.0001562,53.2189,13.6288,78.1885,281.9283,0.00029016,4.333e-05,0.0,0 STARLINK-3989,1 52630U 22052AJ  23259.28743191  .00004333  00000-0  29016-3 0  9997,2 52630  53.2189  13.6288 0001562  78.1885 281.9283 15.08837358 74681,6917.888,95.438,540.834,538.673,0.0
52630.0,STARLINK-3989,PAYLOAD,2023-09-16 13:15:26,15.08836508,0.0001412,53.219,12.4393,86.269,273.8464,0.00022447,3.286e-05,0.0,0 STARLINK-3989,1 52630U 22052AJ  23259.55239224  .00003286  00000-0  22447-3 0  9991,2 52630  53.2190  12.4393 0001412  86.2690 273.8464 15.08836508 74345,6917.891,95.438,540.733,538.779,0.0
52630.0,STARLINK-3989,PAYLOAD,2023-09-17 00:23:08,15.08834261,0.0001284,53.2197,10.3586,89.0395,271.0744,0.00018561,2.667e-05,0.0,0 STARLINK-3989,1 52630U 22052AJ  23260.01607426  .00002667  00000-0  18561-3 0  9991,2 52630  53.2197  10.3586 0001284  89.0395 271.0744 15.08834261 74797,6917.898,95.438,540.651,538.875,0.0
52630.0,STARLINK-3989,PAYLOAD,2023-09-17 13:06:13,15.08848693,0.0001203,53.2202,7.9795,71.6624,288.4499,5.7213e-05,6.23e-06,0.0,0 STARLINK-3989,1 52630U 22052AJ  23260.54598752  .00000623  00000-0  57213-4 0  9998,2 52630  53.2202   7.9795 0001203  71.6624 288.4499 15.08848693 74491,6917.854,95.437,540.551,538.887,0.0
52630.0,STARLINK-3989,PAYLOAD,2023-09-17 17:52:22,15.08856099,0.0001366,53.2203,7.0861,80.604,279.5107,0.00011883,1.605e-05,0.0,0 STARLINK-3989,1 52630U 22052AJ  23260.74470058  .00001605  00000-0  11883-3 0  9991,2 52630  53.2203   7.0861 0001366  80.6040 279.5107 15.08856099 74901,6917.831,95.437,540.641,538.751,0.0
52630.0,STARLINK-3989,PAYLOAD,2023-09-18 00:13:55,15.08843009,0.0001551,53.2193,5.8925,74.157,285.9593,3.7312e-05,3.06e-06,0.0,0 STARLINK-3989,1 52630U 22052AJ  23261.00967071  .00000306  00000-0  37312-4 0  9990,2 52630  53.2193   5.8925 0001551  74.1570 285.9593 15.08843009 74949,6917.871,95.437,540.809,538.663,0.0
52630.0,STARLINK-3989,PAYLOAD,2023-09-18 12:57:00,15.0884229,0.0001585,53.2201,3.5192,86.9059,273.2114,9.3128e-05,1.195e-05,0.0,0 STARLINK-3989,1 52630U 22052AJ  23261.53959111  .00001195  00000-0  93128-4 0  9998,2 52630  53.2201   3.5192 0001585  86.9059 273.2114 15.08842290 74647,6917.873,95.437,540.835,538.642,0.0
52630.0,STARLINK-3989,PAYLOAD,2023-09-19 06:26:14,15.08848495,0.0001661,53.2197,0.2481,85.3196,274.7986,0.00019479,2.814e-05,0.0,0 STARLINK-3989,1 52630U 22052AJ  23262.26822609  .00002814  00000-0  19479-3 0  9995,2 52630  53.2197   0.2481 0001661  85.3196 274.7986 15.08848495 75137,6917.854,95.437,540.868,538.57,0.0
52630.0,STARLINK-3989,PAYLOAD,2023-09-19 12:47:46,15.08860511,0.0001693,53.2195,359.059,83.2634,276.855,0.0002843,4.242e-05,0.0,0 STARLINK-3989,1 52630U 22052AJ  23262.53317863  .00004242  00000-0  28430-3 0  9990,2 52630  53.2195 359.0590 0001693  83.2634 276.8550 15.08860511 75177,6917.818,95.436,540.854,538.512,0.0
52630.0,STARLINK-3989,PAYLOAD,2023-09-20 06:17:01,15.08843876,0.0001706,53.2189,355.7882,81.8011,278.3174,0.000147,2.052e-05,0.0,0 STARLINK-3989,1 52630U 22052AJ  23263.26182631  .00002052  00000-0  14700-3 0  9996,2 52630  53.2189 355.7882 0001706  81.8011 278.3174 15.08843876 75281,6917.869,95.437,540.914,538.553,0.0
52630.0,STARLINK-3989,PAYLOAD,2023-09-20 12:38:34,15.08841598,0.0001623,53.2179,354.5983,74.8798,285.2374,8.4036e-05,1.05e-05,0.0,0 STARLINK-3989,1 52630U 22052AJ  23263.52678846  .00001050  00000-0  84036-4 0  9990,2 52630  53.2179 354.5983 0001623  74.8798 285.2374 15.08841598 74941,6917.876,95.437,540.863,538.618,0.0
52630.0,STARLINK-3989,PAYLOAD,2023-09-21 10:53:58,15.0883918,0.0001574,53.2182,350.4348,75.9012,284.2154,2.2506e-06,-2.52e-06,0.0,0 STARLINK-3989,1 52630U 22052AJ  23264.45415219 -.00000252  00000-0  22506-5 0  9995,2 52630  53.2182 350.4348 0001574  75.9012 284.2154 15.08839180 75468,6917.883,95.438,540.837,538.659,0.0
